[{"OBJECT_NAME":"STARLINK-5802","OBJECT_ID":"2023-065BB","EPOCH":"2026-03-09T22:00:01.999584","MEAN_MOTION":15.13897641,"ECCENTRICITY":0.00010484,"INCLINATION":43.0008,"RA_OF_ASC_NODE":221.339,"ARG_OF_PERICENTER":299.0727,"MEAN_ANOMALY":221.6596,"EPHEMERIS_TYPE":0,"CLASSIFICATION_TYPE":"U","NORAD_CAT_ID":56552,"ELEMENT_SET_NO":999,"REV_AT_EPOCH":572,"BSTAR":0.0067226998,"MEAN_MOTION_DOT":0.00125852,"MEAN_MOTION_DDOT":0},{"OBJECT_NAME":"FENGYUN 1C DEB","OBJECT_ID":"1999-025AMH","EPOCH":"2026-03-09T12:42:15.737184","MEAN_MOTION":15.14321833,"ECCENTRICITY":0.0006603,"INCLINATION":99.0205,"RA_OF_ASC_NODE":1.3766,"ARG_OF_PERICENTER":145.7382,"MEAN_ANOMALY":270.0225,"EPHEMERIS_TYPE":0,"CLASSIFICATION_TYPE":"U","NORAD_CAT_ID":30602,"ELEMENT_SET_NO":999,"REV_AT_EPOCH":99107,"BSTAR":0.010046779,"MEAN_MOTION_DOT":0.0018881,"MEAN_MOTION_DDOT":0}]
